OBJECT_NAME,OBJECT_ID,EPOCH,MEAN_MOTION,ECCENTRICITY,INCLINATION,RA_OF_ASC_NODE,ARG_OF_PERICENTER,MEAN_ANOMALY,EPHEMERIS_TYPE,CLASSIFICATION_TYPE,NORAD_CAT_ID,ELEMENT_SET_NO,REV_AT_EPOCH,BSTAR,MEAN_MOTION_DOT,MEAN_MOTION_DDOT
YAOGAN-24,2014-072A,2024-10-05T13:03:48.944736,14.76191907,.0014193,98.0701,43.8442,92.9017,267.3817,0,U,40310,999,53232,.82385E-3,.5658E-4,0
COSMOS 2501 [GLONASS-K],2014-075A,2024-10-04T11:17:37.182336,2.13101457,.0020177,63.6198,211.8790,209.1857,150.7040,0,U,40315,999,7662,0,.18E-6,0
GSAT-16,2014-078A,2024-10-05T02:56:45.295872,1.00272188,.000544,0.0335,111.2116,1.5870,0.7618,0,U,40332,999,3604,0,.94E-6,0
DIRECTV 14,2014-078B,2024-10-03T22:45:03.082176,1.00272457,.0000483,0.0283,280.1652,155.9345,179.0797,0,U,40333,999,3601,0,-.119E-5,0
CBERS 4,2014-079A,2024-10-05T12:40:01.576992,14.35486541,.0001316,98.3892,344.9214,60.0862,300.0455,0,U,40336,999,51507,.11761E-4,-.9E-7,0
YAOGAN-25 01A,2014-080A,2024-10-05T12:39:16.714656,13.45312242,.0311367,63.3905,106.4796,6.3583,354.1254,0,U,40338,999,48248,.16714E-3,.42E-6,0
YAOGAN-25 01B,2014-080B,2024-10-05T03:39:13.528224,13.45330949,.0311622,63.3913,107.5825,6.2199,354.2557,0,U,40339,999,48243,.211E-3,.77E-6,0
YAOGAN-25 01C,2014-080C,2024-10-05T12:33:06.238368,13.45333941,.0311317,63.3895,107.0008,6.8358,353.6767,0,U,40340,999,48246,.15157E-3,.3E-6,0
YAMAL 401,2014-082A,2024-10-03T23:39:20.885760,1.00270477,.0000533,0.0116,189.8603,33.5473,234.5734,0,U,40345,999,3568,0,-.222E-5,0
O3B FM10,2014-083A,2024-10-03T02:23:12.333120,5.00115742,.0002589,0.0557,1.4154,192.4653,166.1169,0,U,40348,999,17876,0,-.22E-6,0
O3B FM11,2014-083B,2024-10-03T07:30:04.543776,5.00115712,.000187,0.0578,357.2584,198.1369,164.6038,0,U,40349,999,17880,0,-.22E-6,0
O3B FM12,2014-083C,2024-10-03T08:09:22.267584,5.00115707,.0002551,0.0569,357.4235,199.7899,162.7828,0,U,40350,999,17881,0,-.22E-6,0
O3B FM9,2014-083D,2024-10-02T08:48:29.789280,5.00115346,.0002523,0.0587,356.4262,194.5010,169.0714,0,U,40351,999,17890,0,-.24E-6,0
COSMOS 2502,2014-086A,2024-10-05T11:39:45.607392,13.97669224,.0006679,67.1507,75.8973,286.6264,73.4088,0,U,40358,999,49905,.32543E-3,.384E-5,0
RESURS-P 2,2014-087A,2024-10-05T11:51:54.399168,15.70675317,.0004643,97.1443,7.4634,228.9549,131.1313,0,U,40360,999,54830,.79698E-3,.99256E-3,0
YAOGAN-26,2014-088A,2024-10-05T11:15:12.832992,15.23415918,.0009184,97.0787,294.3527,115.7433,244.4753,0,U,40362,999,54409,.79983E-3,.19027E-3,0
ASTRA 2G,2014-089A,2024-10-05T02:49:07.401792,1.00273710,.000185,0.0638,35.1546,58.0025,351.6036,0,U,40364,999,3580,0,.159E-5,0
FENGYUN 2G,2014-090A,2024-10-05T01:26:33.137664,1.00266638,.0002802,4.0670,80.2116,165.7312,249.4693,0,U,40367,999,3582,0,-.289E-5,0
MUOS-3,2015-002A,2024-10-05T07:45:18.305856,1.00270367,.0061818,3.4094,37.2367,178.7301,259.3177,0,U,40374,999,3560,0,-.118E-5,0
SMAP,2015-003A,2024-10-05T04:22:05.409120,14.63317555,.0001234,98.1305,284.0294,91.6350,268.4994,0,U,40376,999,51694,.72191E-3,.368E-4,0
INMARSAT 5-F2,2015-005A,2024-10-04T07:32:19.065120,1.00270195,.0000458,0.0163,182.1585,321.9002,287.4751,0,U,40384,999,3476,0,-.277E-5,0
COSMOS 2503,2015-009A,2024-10-05T03:52:19.165152,15.03192129,.0017392,97.9208,312.4166,179.6826,180.4413,0,U,40420,999,52567,.57997E-3,.7808E-4,0
ABS-3A,2015-010A,2024-10-03T18:03:47.543904,1.00271969,.0001618,0.0145,138.1841,14.5116,128.2130,0,U,40424,999,3513,0,-.2E-6,0
EUTELSAT 115 WEST B,2015-010B,2024-10-04T13:09:36.773856,1.00270851,.0000066,0.0173,340.0117,152.7850,323.4380,0,U,40425,999,3521,0,-.17E-6,0
MMS 1,2015-011A,2024-10-04T00:00:00.999648,0.28511527,.9004056,54.2375,4.3960,152.1310,103.0270,0,U,40482,999,1568,0,-.1284E-4,0
MMS 2,2015-011B,2024-10-04T00:00:00.999648,0.28510014,.9003858,54.2375,4.3959,152.1318,101.8421,0,U,40483,999,1566,0,-.1284E-4,0
MMS 3,2015-011C,2024-10-04T00:00:00.999648,0.28510192,.9003852,54.2388,4.3953,152.1318,101.9735,0,U,40484,999,1566,0,-.1284E-4,0
MMS 4,2015-011D,2024-10-04T02:00:01.999872,0.28508522,.9002396,54.2401,4.3928,152.1352,100.6768,0,U,40485,999,130,0,-.1281E-4,0
EXPRESS-AM7,2015-012A,2024-10-05T02:52:30.076320,1.00270054,.0002502,0.0165,238.7700,322.8696,255.7959,0,U,40505,999,3514,0,.16E-5,0
NAVSTAR 73 (USA 260),2015-013A,2024-10-05T07:46:42.105216,2.00559011,.0092007,53.3100,229.8342,30.9166,329.6008,0,U,40534,999,6981,0,.14E-6,0
KOMPSAT-3A,2015-014A,2024-10-05T11:34:36.707520,15.26022383,.0000317,97.6241,231.3958,352.5098,7.6135,0,U,40536,999,52650,.12521E-2,.3225E-3,0
