40310,YAOGAN-24,2014,97.55,-1.0,+,98.07,Active,1,LEO,PRC,China,Military,Earth Observation,Long March,1 40310U 14072A   24279.54431649  .00005658  00000+0  82385-3 0  9994,2 40310  98.0701  43.8442 0014193  92.9017 267.3817 14.76191907532320,14.76191907,0.0014193,LEO
40315,COSMOS 2501 [GLONASS-K],2014,675.73,935.0,+,63.62,Active,1,MEO,Russia,Russia/USSR,Commercial/Military,Navigation (Global or Regional Positioning),Soyuz,1 40315U 14075A   24278.47056924  .00000018  00000+0  00000+0 0  9997,2 40315  63.6198 211.8790 0020177 209.1857 150.7040  2.13101457 76627,2.13101457,0.0020177,MEO
40332,GSAT-16,2014,1436.09,3181.0,+,0.03,Active,1,GSO,French Guiana,India,Government,Communications,Ariane,1 40332U 14078A   24279.12274648  .00000094  00000+0  00000+0 0  9991,2 40332   0.0335 111.2116 0005440   1.5870   0.7618  1.00272188 36046,1.00272188,0.000544,GEO
40333,DIRECTV 14,2014,1436.09,5900.0,+,0.03,Active,1,GSO,French Guiana,USA,Commercial,Communications,Ariane,1 40333U 14078B   24277.94795234 -.00000119  00000+0  00000+0 0  9998,2 40333   0.0283 280.1652 0000483 155.9345 179.0797  1.00272457 36017,1.00272457,4.83e-05,GEO
40336,CBERS 4,2014,100.31,1980.0,+,98.39,Active,1,LEO,PRC,China/Brazil,Government,Earth Observation,Long March,1 40336U 14079A   24279.52779603 -.00000009  00000+0  11761-4 0  9999,2 40336  98.3892 344.9214 0001316  60.0862 300.0455 14.35486541515073,14.35486541,0.0001316,LEO
40338,YAOGAN-25 01A,2014,107.04,-1.0,+,63.39,Active,1,LEO,PRC,China,Military,Earth Observation,Long March,1 40338U 14080A   24279.52727679  .00000042  00000+0  16714-3 0  9997,2 40338  63.3905 106.4796 0311367   6.3583 354.1254 13.45312242482482,13.45312242,0.0311367,LEO
40339,YAOGAN-25 01B,2014,107.04,-1.0,+,63.39,Active,1,LEO,PRC,China,Military,Earth Observation,Long March,1 40339U 14080B   24279.15223991  .00000077  00000+0  21100-3 0  9998,2 40339  63.3913 107.5825 0311622   6.2199 354.2557 13.45330949482439,13.45330949,0.0311622,LEO
40340,YAOGAN-25 01C,2014,107.04,-1.0,+,63.39,Active,1,LEO,PRC,China,Military,Earth Observation,Long March,1 40340U 14080C   24279.52298887  .00000030  00000+0  15157-3 0  9991,2 40340  63.3895 107.0008 0311317   6.8358 353.6767 13.45333941482466,13.45333941,0.0311317,LEO
40345,YAMAL 401,2014,1436.12,2976.0,+,0.01,Active,1,GSO,Kazakhstan,Russia/USSR,Commercial,Communications,Proton,1 40345U 14082A   24277.98565840 -.00000222  00000+0  00000+0 0  9993,2 40345   0.0116 189.8603 0000533  33.5473 234.5734  1.00270477 35685,1.00270477,5.33e-05,GEO
40348,O3B FM10,2014,287.93,650.0,+,0.06,Active,1,MEO,French Guiana,O3b Networks,Commercial,Communications,Soyuz,1 40348U 14083A   24277.09944830 -.00000022  00000+0  00000+0 0  9997,2 40348   0.0557   1.4154 0002589 192.4653 166.1169  5.00115742178761,5.00115742,0.0002589,MEO
40349,O3B FM11,2014,287.93,650.0,+,0.06,Active,1,MEO,French Guiana,O3b Networks,Commercial,Communications,Soyuz,1 40349U 14083B   24277.31255259 -.00000022  00000+0  00000+0 0  9993,2 40349   0.0578 357.2584 0001870 198.1369 164.6038  5.00115712178803,5.00115712,0.000187,MEO
40350,O3B FM12,2014,287.93,650.0,+,0.06,Active,1,MEO,French Guiana,O3b Networks,Commercial,Communications,Soyuz,1 40350U 14083C   24277.33984106 -.00000022  00000+0  00000+0 0  9997,2 40350   0.0569 357.4235 0002551 199.7899 162.7828  5.00115707178813,5.00115707,0.0002551,MEO
40351,O3B FM9,2014,287.93,650.0,+,0.06,Active,1,MEO,French Guiana,O3b Networks,Commercial,Communications,Soyuz,1 40351U 14083D   24276.36701145 -.00000024  00000+0  00000+0 0  9992,2 40351   0.0587 356.4262 0002523 194.5010 169.0714  5.00115346178903,5.00115346,0.0002523,MEO
40358,COSMOS 2502,2014,103.03,5000.0,+,67.15,Active,1,LEO,Russia,Russia/USSR,Military,Earth Observation,Soyuz,1 40358U 14086A   24279.48594453  .00000384  00000+0  32543-3 0  9999,2 40358  67.1507  75.8973 0006679 286.6264  73.4088 13.97669224499055,13.97669224,0.0006679,LEO
40360,RESURS-P 2,2014,91.69,5900.0,P,97.14,Active,1,LEO,Kazakhstan,Russia/USSR,Commercial/Government,Earth Observation/Communications/Space Science,Soyuz,1 40360U 14087A   24279.49437962  .00099256  00000+0  79698-3 0  9993,2 40360  97.1443   7.4634 0004643 228.9549 131.1313 15.70675317548308,15.70675317,0.0004643,LEO
40362,YAOGAN-26,2014,94.53,-1.0,+,97.08,Active,1,LEO,PRC,China,Military,Earth Observation,Long March,1 40362U 14088A   24279.46889853  .00019027  00000+0  79983-3 0  9998,2 40362  97.0787 294.3527 0009184 115.7433 244.4753 15.23415918544093,15.23415918,0.0009184,LEO
40364,ASTRA 2G,2014,1436.07,6000.0,+,0.06,Active,1,GSO,Kazakhstan,SES,Commercial,Communications,Proton,1 40364U 14089A   24279.11744678  .00000159  00000+0  00000+0 0  9994,2 40364   0.0638  35.1546 0001850  58.0025 351.6036  1.00273710 35805,1.0027371,0.000185,GEO
40367,FENGYUN 2G,2014,1436.17,1390.0,+,4.07,Active,1,GSO,PRC,China,Government,Earth Observation,Long March,1 40367U 14090A   24279.06010576 -.00000289  00000+0  00000+0 0  9991,2 40367   4.0670  80.2116 0002802 165.7312 249.4693  1.00266638 35821,1.00266638,0.0002802,GSO
40374,MUOS-3,2015,1436.12,6804.0,+,3.41,Active,1,GSO,USA,USA,Military,Communications,Atlas,1 40374U 15002A   24279.32312854 -.00000118  00000+0  00000+0 0  9997,2 40374   3.4094  37.2367 0061818 178.7301 259.3177  1.00270367 35603,1.00270367,0.0061818,GSO
40376,SMAP,2015,98.41,-1.0,P,98.13,Active,1,LEO,USA,USA,Government,Earth Observation,Delta,1 40376U 15003A   24279.18200705  .00003680  00000+0  72191-3 0  9995,2 40376  98.1305 284.0294 0001234  91.6350 268.4994 14.63317555516948,14.63317555,0.0001234,LEO
40384,INMARSAT 5-F2,2015,1436.12,6105.0,+,0.02,Active,1,GSO,Kazakhstan,INMARSAT,Commercial,Communications,Proton,1 40384U 15005A   24278.31410955 -.00000277  00000+0  00000+0 0  9996,2 40384   0.0163 182.1585 0000458 321.9002 287.4751  1.00270195 34764,1.00270195,4.58e-05,GEO
40420,COSMOS 2503,2015,95.8,4000.0,+,97.92,Active,1,LEO,Russia,Russia/USSR,Military,Earth Observation,Soyuz,1 40420U 15009A   24279.16133293  .00007808  00000+0  57997-3 0  9999,2 40420  97.9208 312.4166 0017392 179.6826 180.4413 15.03192129525670,15.03192129,0.0017392,LEO
40424,ABS-3A,2015,1436.09,2000.0,+,0.01,Active,1,GSO,USA,ABS,Commercial,Communications,Falcon,1 40424U 15010A   24277.75263361 -.00000020  00000+0  00000+0 0  9997,2 40424   0.0145 138.1841 0001618  14.5116 128.2130  1.00271969 35130,1.00271969,0.0001618,GEO
40425,EUTELSAT 115 WEST B,2015,1436.11,-1.0,+,0.02,Active,1,GSO,USA,EUTELSAT,Commercial,Communications,Falcon,1 40425U 15010B   24278.54834229 -.00000017  00000+0  00000+0 0  9999,2 40425   0.0173 340.0117 0000066 152.7850 323.4380  1.00270851 35212,1.00270851,6.6e-06,GEO
40482,MMS 1,2015,5050.59,1360.0,+,54.24,Active,1,HEO,USA,USA,Government,Space Science,Atlas,1 40482U 15011A   24278.00001157 -.00001284  00000+0  00000+0 0  9997,2 40482  54.2375   4.3960 9004056 152.1310 103.0270  0.28511527 15689,0.28511527,0.9004056,HEO
40483,MMS 2,2015,5050.86,1360.0,+,54.24,Active,1,HEO,USA,USA,Government,Space Science,Atlas,1 40483U 15011B   24278.00001157 -.00001284  00000+0  00000+0 0  9998,2 40483  54.2375   4.3959 9003858 152.1318 101.8421  0.28510014 15667,0.28510014,0.9003858,HEO
40484,MMS 3,2015,5050.83,1360.0,+,54.24,Active,1,HEO,USA,USA,Government,Space Science,Atlas,1 40484U 15011C   24278.00001157 -.00001284  00000+0  00000+0 0  9999,2 40484  54.2388   4.3953 9003852 152.1318 101.9735  0.28510192 15666,0.28510192,0.9003852,HEO
40485,MMS 4,2015,5051.12,1360.0,+,54.24,Active,1,HEO,USA,USA,Government,Space Science,Atlas,1 40485U 15011D   24278.08335648 -.00001281  00000+0  00000+0 0  9990,2 40485  54.2401   4.3928 9002396 152.1352 100.6768  0.28508522  1307,0.28508522,0.9002396,HEO
40505,EXPRESS-AM7,2015,1436.13,5720.0,+,0.01,Active,1,GSO,Kazakhstan,Russia/USSR,Commercial,Communications,Proton,1 40505U 15012A   24279.11979255  .00000160  00000+0  00000+0 0  9991,2 40505   0.0165 238.7700 0002502 322.8696 255.7959  1.00270054 35144,1.00270054,0.0002502,GEO
40534,NAVSTAR 73 (USA 260),2015,717.99,1630.0,+,53.31,Active,1,MEO,USA,USA,Commercial/Military,Navigation (Global or Regional Positioning),Delta,1 40534U 15013A   24279.32409844  .00000014  00000+0  00000+0 0  9997,2 40534  53.3100 229.8342 0092007  30.9166 329.6008  2.00559011 69818,2.00559011,0.0092007,MEO
40536,KOMPSAT-3A,2015,94.37,980.0,+,97.62,Active,1,LEO,Russia,South Korea,Commercial/Government,Earth Observation,Dnepr,1 40536U 15014A   24279.48236930  .00032250  00000+0  12521-2 0  9992,2 40536  97.6241 231.3958 0000317 352.5098   7.6135 15.26022383526505,15.26022383,3.17e-05,LEO
